ELECTRON KICK STAGE R/B 
1 67616U 26019C   26031.75998387  .00037009  25655-5  21952-3 0  9991
2 67616  97.4031 156.7817 0207820 255.9499 101.8576 15.53913180   261
ALSAT-3B                
1 67646U 26021A   26032.65644661  .00006301  00000+0  26759-3 0  9992
2 67646  97.4743 107.1469 0011321 260.4660  99.5297 15.23374912   238
CZ-2C R/B               
1 67647U 26021B   26032.52595559  .00012972  00000+0  39634-3 0  9997
2 67647  97.6585 107.2658 0154399 136.7856 224.5617 15.23036804   197
