CCSDS_OMM_VERS = 2.0
CREATION_DATE  = 
ORIGINATOR     = 

OBJECT_NAME    = ELECTRON KICK STAGE R/B
OBJECT_ID      = 2026-019C
CENTER_NAME    = EARTH
REF_FRAME      = TEME
TIME_SYSTEM    = UTC
MEAN_ELEMENT_THEORY = SGP/SGP4

EPOCH          = 2026-01-31T18:14:22.606368
MEAN_MOTION    = 15.53913180
ECCENTRICITY   = .02078201
INCLINATION    = 97.4031
RA_OF_ASC_NODE = 156.7817
ARG_OF_PERICENTER = 255.9499
MEAN_ANOMALY   = 101.8576

EPHEMERIS_TYPE = 0
CLASSIFICATION_TYPE = U
NORAD_CAT_ID   = 67616
ELEMENT_SET_NO = 999
REV_AT_EPOCH   = 26
BSTAR          = .21952164E-3
MEAN_MOTION_DOT = .37009E-3
MEAN_MOTION_DDOT = .2565545E-5

CCSDS_OMM_VERS = 2.0
CREATION_DATE  = 
ORIGINATOR     = 

OBJECT_NAME    = ALSAT-3B
OBJECT_ID      = 2026-021A
CENTER_NAME    = EARTH
REF_FRAME      = TEME
TIME_SYSTEM    = UTC
MEAN_ELEMENT_THEORY = SGP/SGP4

EPOCH          = 2026-02-01T15:45:16.987104
MEAN_MOTION    = 15.23374912
ECCENTRICITY   = .0011321
INCLINATION    = 97.4743
RA_OF_ASC_NODE = 107.1469
ARG_OF_PERICENTER = 260.4660
MEAN_ANOMALY   = 99.5297

EPHEMERIS_TYPE = 0
CLASSIFICATION_TYPE = U
NORAD_CAT_ID   = 67646
ELEMENT_SET_NO = 999
REV_AT_EPOCH   = 23
BSTAR          = .26759E-3
MEAN_MOTION_DOT = .6301E-4
MEAN_MOTION_DDOT = 0

CCSDS_OMM_VERS = 2.0
CREATION_DATE  = 
ORIGINATOR     = 

OBJECT_NAME    = CZ-2C R/B
OBJECT_ID      = 2026-021B
CENTER_NAME    = EARTH
REF_FRAME      = TEME
TIME_SYSTEM    = UTC
MEAN_ELEMENT_THEORY = SGP/SGP4

EPOCH          = 2026-02-01T12:37:22.562976
MEAN_MOTION    = 15.23036804
ECCENTRICITY   = .0154399
INCLINATION    = 97.6585
RA_OF_ASC_NODE = 107.2658
ARG_OF_PERICENTER = 136.7856
MEAN_ANOMALY   = 224.5617

EPHEMERIS_TYPE = 0
CLASSIFICATION_TYPE = U
NORAD_CAT_ID   = 67647
ELEMENT_SET_NO = 999
REV_AT_EPOCH   = 19
BSTAR          = .39634E-3
MEAN_MOTION_DOT = .12972E-3
MEAN_MOTION_DDOT = 0

